HAWK-5A                 
1 52757U 22057AB  26164.23807802  .00019490  00000+0  33383-3 0  9996
2 52757  97.6591 322.8316 0005817  90.8952 269.2966 15.51258111225733
HAWK-6B                 
1 55324U 23011A   26164.05174949  .00005974  00000+0  25751-3 0  9991
2 55324  40.4994  16.1918 0003053 336.7771  23.2900 15.22898934187218
HAWK-6C                 
1 55326U 23011C   26160.37868959  .00004206  00000+0  18395-3 0  9998
2 55326  40.4982  34.4522 0004314 308.3612  51.6810 15.22867772186660
HAWK-6A                 
1 55327U 23011D   26163.85440110  .00004881  00000+0  21198-3 0  9994
2 55327  40.4993  15.8058 0003541 323.3338  36.7228 15.22893204187198
HAWK-7A                 
1 56191U 23054P   26164.17944313  .00005812  00000+0  21986-3 0  9991
2 56191  97.2710  51.6187 0004586  65.9559 294.2160 15.27320743176417
HAWK-7B                 
1 56193U 23054R   26164.17935313  .00003272  00000+0  12500-3 0  9993
2 56193  97.2736  49.8812 0003971  79.0754 281.0932 15.27316481176416
HAWK-7C                 
1 56200U 23054Y   26164.24476348  .00005668  00000+0  21447-3 0  9999
2 56200  97.2715  50.7153 0003932  68.0933 292.0725 15.27321373176424
