OBJECT_NAME,OBJECT_ID,EPOCH,MEAN_MOTION,ECCENTRICITY,INCLINATION,RA_OF_ASC_NODE,ARG_OF_PERICENTER,MEAN_ANOMALY,EPHEMERIS_TYPE,CLASSIFICATION_TYPE,NORAD_CAT_ID,ELEMENT_SET_NO,REV_AT_EPOCH,BSTAR,MEAN_MOTION_DOT,MEAN_MOTION_DDOT
HAWK-5A,2022-057AB,2026-06-13T05:42:49.940928,15.51258111,.00058176,97.6591,322.8316,90.8952,269.2966,0,U,52757,999,22573,.33383015E-3,.1949E-3,0
HAWK-6B,2023-011A,2026-06-13T01:14:31.155936,15.22898934,.00030538,40.4994,16.1918,336.7771,23.2900,0,U,55324,999,18721,.25751278E-3,.5974E-4,0
HAWK-6C,2023-011C,2026-06-09T09:05:18.780576,15.22867772,.00043141,40.4982,34.4522,308.3612,51.6810,0,U,55326,999,18666,.18394517E-3,.4206E-4,0
HAWK-6A,2023-011D,2026-06-12T20:30:20.255040,15.22893204,.00035412,40.4993,15.8058,323.3338,36.7228,0,U,55327,999,18719,.21197509E-3,.4881E-4,0
HAWK-7A,2023-054P,2026-06-13T04:18:23.886432,15.27320743,.0004586,97.2710,51.6187,65.9559,294.2160,0,U,56191,999,17641,.21985811E-3,.5812E-4,0
HAWK-7B,2023-054R,2026-06-13T04:18:16.110432,15.27316481,.00039711,97.2736,49.8812,79.0754,281.0932,0,U,56193,999,17641,.12499612E-3,.3272E-4,0
HAWK-7C,2023-054Y,2026-06-13T05:52:27.564672,15.27321373,.00039329,97.2715,50.7153,68.0933,292.0725,0,U,56200,999,17642,.21447029E-3,.5668E-4,0
